{
  "norad_id": 37190,
  "name": "GLOBALSTAR M076",
  "history": [
    {
      "epoch": "2026-03-28T21:36:10.970208Z",
      "apogee_km": 1413.8810734418666,
      "perigee_km": 1413.2890583992967,
      "latitude_deg": 50.672526258082755,
      "longitude_deg": -86.24212916266261,
      "height_km": 1419.2878126923001,
      "semi_major_axis_km": 7791.722065920581,
      "eccentricity": 3.799e-05,
      "inclination_deg": 52.0061,
      "raan_deg": 352.5503,
      "arg_perigee_deg": 93.7737,
      "mean_anomaly_deg": 344.6455,
      "mean_motion_rev_day": 12.62270937
    },
    {
      "epoch": "2026-03-29T03:40:46.030656Z",
      "apogee_km": 1413.8873641600057,
      "perigee_km": 1413.2827265292872,
      "latitude_deg": 23.639417477378803,
      "longitude_deg": -89.86554637892512,
      "height_km": 1414.081879271431,
      "semi_major_axis_km": 7791.722045344646,
      "eccentricity": 3.88e-05,
      "inclination_deg": 52.006,
      "raan_deg": 351.7796,
      "arg_perigee_deg": 93.4199,
      "mean_anomaly_deg": 56.0689,
      "mean_motion_rev_day": 12.62270942
    },
    {
      "epoch": "2026-03-30T02:26:33.029952Z",
      "apogee_km": 1413.8949171916956,
      "perigee_km": 1413.2746961358853,
      "latitude_deg": 29.41985735427316,
      "longitude_deg": -81.24028030491247,
      "height_km": 1414.8609856912447,
      "semi_major_axis_km": 7791.721806663791,
      "eccentricity": 3.98e-05,
      "inclination_deg": 52.0059,
      "raan_deg": 348.8924,
      "arg_perigee_deg": 92.8365,
      "mean_anomaly_deg": 48.7185,
      "mean_motion_rev_day": 12.62271
    },
    {
      "epoch": "2026-03-30T02:26:33.030816Z",
      "apogee_km": 1413.89476135726,
      "perigee_km": 1413.2748519703218,
      "latitude_deg": 29.419858577233157,
      "longitude_deg": -81.24028531068622,
      "height_km": 1414.8610886940403,
      "semi_major_axis_km": 7791.721806663791,
      "eccentricity": 3.978e-05,
      "inclination_deg": 52.0059,
      "raan_deg": 348.8924,
      "arg_perigee_deg": 92.8365,
      "mean_anomaly_deg": 48.7185,
      "mean_motion_rev_day": 12.62271
    },
    {
      "epoch": "2026-03-30T21:06:49.652640Z",
      "apogee_km": 1413.90118705831,
      "perigee_km": 1413.268187588431,
      "latitude_deg": 50.69380081194128,
      "longitude_deg": -86.74801974811885,
      "height_km": 1419.2710379544042,
      "semi_major_axis_km": 7791.72168732337,
      "eccentricity": 4.062e-05,
      "inclination_deg": 52.0058,
      "raan_deg": 346.5242,
      "arg_perigee_deg": 92.7212,
      "mean_anomaly_deg": 345.7848,
      "mean_motion_rev_day": 12.62271029
    },
    {
      "epoch": "2026-03-31T21:49:55.513920Z",
      "apogee_km": 1413.9010764927689,
      "perigee_km": 1413.2683886880832,
      "latitude_deg": 51.23959966102289,
      "longitude_deg": -97.883286366673,
      "height_km": 1419.395172012508,
      "semi_major_axis_km": 7791.721732590426,
      "eccentricity": 4.06e-05,
      "inclination_deg": 52.0056,
      "raan_deg": 343.389,
      "arg_perigee_deg": 91.6309,
      "mean_anomaly_deg": 349.3271,
      "mean_motion_rev_day": 12.62271018
    },
    {
      "epoch": "2026-04-01T01:58:49.084320Z",
      "apogee_km": 1413.9001491678719,
      "perigee_km": 1413.2690197195307,
      "latitude_deg": 25.652692330195894,
      "longitude_deg": -78.21060608051157,
      "height_km": 1414.3251498644927,
      "semi_major_axis_km": 7791.7215844437005,
      "eccentricity": 4.05e-05,
      "inclination_deg": 52.0056,
      "raan_deg": 342.8629,
      "arg_perigee_deg": 91.3301,
      "mean_anomaly_deg": 55.4352,
      "mean_motion_rev_day": 12.62271054
    },
    {
      "epoch": "2026-04-02T21:20:25.314432Z",
      "apogee_km": 1413.9070053337337,
      "perigee_km": 1413.2618507994894,
      "latitude_deg": 51.16295361324094,
      "longitude_deg": -99.0773159527163,
      "height_km": 1419.3701773031307,
      "semi_major_axis_km": 7791.721428066611,
      "eccentricity": 4.14e-05,
      "inclination_deg": 52.0055,
      "raan_deg": 337.3632,
      "arg_perigee_deg": 90.6936,
      "mean_anomaly_deg": 349.8843,
      "mean_motion_rev_day": 12.62271092
    },
    {
      "epoch": "2026-04-02T22:53:49.349760Z",
      "apogee_km": 1413.9042571053787,
      "perigee_km": 1413.2642451218135,
      "latitude_deg": 12.124178130312906,
      "longitude_deg": 172.02691707906772,
      "height_km": 1413.4359845527802,
      "semi_major_axis_km": 7791.721251113596,
      "eccentricity": 4.107e-05,
      "inclination_deg": 52.0055,
      "raan_deg": 337.1658,
      "arg_perigee_deg": 90.6767,
      "mean_anomaly_deg": 284.7869,
      "mean_motion_rev_day": 12.62271135
    },
    {
      "epoch": "2026-04-03T20:08:03.418944Z",
      "apogee_km": 1413.9180961882903,
      "perigee_km": 1413.2495665409606,
      "latitude_deg": 50.68985454380656,
      "longitude_deg": -88.03104523698873,
      "height_km": 1419.2497150123195,
      "semi_major_axis_km": 7791.720831364625,
      "eccentricity": 4.29e-05,
      "inclination_deg": 52.0053,
      "raan_deg": 334.4721,
      "arg_perigee_deg": 91.024,
      "mean_anomaly_deg": 347.4679,
      "mean_motion_rev_day": 12.62271237
    },
    {
      "epoch": "2026-04-04T02:13:04.132416Z",
      "apogee_km": 1413.9196007580485,
      "perigee_km": 1413.2477985993228,
      "latitude_deg": 22.57620093422758,
      "longitude_deg": -90.83885876373398,
      "height_km": 1413.9631323420626,
      "semi_major_axis_km": 7791.720699678685,
      "eccentricity": 4.311e-05,
      "inclination_deg": 52.0053,
      "raan_deg": 333.7005,
      "arg_perigee_deg": 90.489,
      "mean_anomaly_deg": 60.4227,
      "mean_motion_rev_day": 12.62271269
    },
    {
      "epoch": "2026-04-05T08:43:51.307392Z",
      "apogee_km": 1413.9262566435755,
      "perigee_km": 1413.2412085567667,
      "latitude_deg": 6.975891200391211,
      "longitude_deg": 179.73862760849127,
      "height_km": 1413.5796293397448,
      "semi_major_axis_km": 7791.720732600171,
      "eccentricity": 4.396e-05,
      "inclination_deg": 52.0052,
      "raan_deg": 329.8303,
      "arg_perigee_deg": 90.3109,
      "mean_anomaly_deg": 80.7805,
      "mean_motion_rev_day": 12.62271261
    },
    {
      "epoch": "2026-04-05T19:38:46.296096Z",
      "apogee_km": 1413.9288399827392,
      "perigee_km": 1413.238493531664,
      "latitude_deg": 50.765388007912044,
      "longitude_deg": -88.21397928782936,
      "height_km": 1419.2560325602278,
      "semi_major_axis_km": 7791.720666757201,
      "eccentricity": 4.43e-05,
      "inclination_deg": 52.0051,
      "raan_deg": 328.4458,
      "arg_perigee_deg": 90.8683,
      "mean_anomaly_deg": 347.9331,
      "mean_motion_rev_day": 12.62271277
    },
    {
      "epoch": "2026-04-06T01:43:48.987264Z",
      "apogee_km": 1413.9388177754472,
      "perigee_km": 1413.2286803463776,
      "latitude_deg": 22.26589153732618,
      "longitude_deg": -91.2056310800635,
      "height_km": 1413.9187498381746,
      "semi_major_axis_km": 7791.720749060913,
      "eccentricity": 4.557e-05,
      "inclination_deg": 52.005,
      "raan_deg": 327.6741,
      "arg_perigee_deg": 91.219,
      "mean_anomaly_deg": 60.1062,
      "mean_motion_rev_day": 12.62271257
    },
    {
      "epoch": "2026-04-07T20:41:55.870944Z",
      "apogee_km": 1413.9479365542684,
      "perigee_km": 1413.2186315356812,
      "latitude_deg": 8.607786768393696,
      "longitude_deg": -177.63481116136182,
      "height_km": 1413.5114176350614,
      "semi_major_axis_km": 7791.7202840449745,
      "eccentricity": 4.68e-05,
      "inclination_deg": 52.0047,
      "raan_deg": 322.224,
      "arg_perigee_deg": 92.4982,
      "mean_anomaly_deg": 278.4821,
      "mean_motion_rev_day": 12.6227137
    },
    {
      "epoch": "2026-04-08T08:56:36.528000Z",
      "apogee_km": 1413.9485637322905,
      "perigee_km": 1413.2178562109993,
      "latitude_deg": 7.431382523111145,
      "longitude_deg": 164.06345807120368,
      "height_km": 1413.5384765737172,
      "semi_major_axis_km": 7791.720209971645,
      "eccentricity": 4.689e-05,
      "inclination_deg": 52.0046,
      "raan_deg": 320.6708,
      "arg_perigee_deg": 92.0813,
      "mean_anomaly_deg": 78.4321,
      "mean_motion_rev_day": 12.62271388
    },
    {
      "epoch": "2026-04-09T18:40:17.285376Z",
      "apogee_km": 1413.9506581660025,
      "perigee_km": 1413.2151198084812,
      "latitude_deg": 50.9732970903681,
      "longitude_deg": -88.16860820550764,
      "height_km": 1419.282839655721,
      "semi_major_axis_km": 7791.719888987242,
      "eccentricity": 4.72e-05,
      "inclination_deg": 52.0044,
      "raan_deg": 316.3927,
      "arg_perigee_deg": 92.4282,
      "mean_anomaly_deg": 347.2704,
      "mean_motion_rev_day": 12.62271466
    },
    {
      "epoch": "2026-04-10T08:27:23.469408Z",
      "apogee_km": 1413.9496567635924,
      "perigee_km": 1413.215676770984,
      "latitude_deg": 7.016953600312161,
      "longitude_deg": 163.71872572808,
      "height_km": 1413.5637399843156,
      "semi_major_axis_km": 7791.719666767288,
      "eccentricity": 4.71e-05,
      "inclination_deg": 52.0043,
      "raan_deg": 314.6441,
      "arg_perigee_deg": 91.6412,
      "mean_anomaly_deg": 79.3977,
      "mean_motion_rev_day": 12.6227152
    },
    {
      "epoch": "2026-04-11T19:43:58.829952Z",
      "apogee_km": 1413.9555321011749,
      "perigee_km": 1413.209085391397,
      "latitude_deg": 10.635081707026698,
      "longitude_deg": -177.46868627129618,
      "height_km": 1413.4496381658246,
      "semi_major_axis_km": 7791.719308746286,
      "eccentricity": 4.79e-05,
      "inclination_deg": 52.0038,
      "raan_deg": 310.1695,
      "arg_perigee_deg": 92.7462,
      "mean_anomaly_deg": 280.8156,
      "mean_motion_rev_day": 12.62271607
    }
  ]
}